{"type": "FeatureCollection", "features": [ {"type": "Feature", "properties": {"norad_id": 66573, "name": "STARLINK-35650", "group": "last-30-days", "lat": 15.360382195873443, "lon": -21.835801526165366, "alt_km": 343.6125427081215, "timestamp": "2025-12-03T13:52:08.346706+00:00", "meta": {"OBJECT_NAME": "STARLINK-35650", "OBJECT_ID": "2025-268S", "EPOCH": "2025-12-03T06:00:02.999808", "MEAN_MOTION": 15.75372341, "ECCENTRICITY": 0.00024438, "INCLINATION": 42.9991, "RA_OF_ASC_NODE": 177.2996, "ARG_OF_PERICENTER": 265.6008, "MEAN_ANOMALY": 190.3157, "EPHEMERIS_TYPE": 0, "CLASSIFICATION_TYPE": "U", "NORAD_CAT_ID": 66573, "ELEMENT_SET_NO": 999, "REV_AT_EPOCH": 314, "BSTAR": -0.0066514884, "MEAN_MOTION_DOT": -0.00929924, "MEAN_MOTION_DDOT": 0}, "tle": {"line1": "1 66573U 25268S   25337.25003472 -.00929924  00000+0 -66515-2 0  9994", "line2": "2 66573  42.9991 177.2996 0002443 265.6008 190.3157 15.75372341  3146"}}, "geometry": {"type": "Point", "coordinates": [-21.835801526165366, 15.360382195873443]}}, {"type": "Feature", "properties": {"norad_id": 66574, "name": "STARLINK-35812", "group": "last-30-days", "lat": 14.092635271715032, "lon": -20.32508885743975, "alt_km": 343.61579215881375, "timestamp": "2025-12-03T13:52:08.346716+00:00", "meta": {"OBJECT_NAME": "STARLINK-35812", "OBJECT_ID": "2025-268T", "EPOCH": "2025-12-03T06:00:02.999808", "MEAN_MOTION": 15.75383492, "ECCENTRICITY": 0.00014535, "INCLINATION": 42.9989, "RA_OF_ASC_NODE": 177.2942, "ARG_OF_PERICENTER": 268.5554, "MEAN_ANOMALY": 189.2865, "EPHEMERIS_TYPE": 0, "CLASSIFICATION_TYPE": "U", "NORAD_CAT_ID": 66574, "ELEMENT_SET_NO": 999, "REV_AT_EPOCH": 314, "BSTAR": -0.0068583105, "MEAN_MOTION_DOT": -0.00955806, "MEAN_MOTION_DDOT": 0}, "tle": {"line1": "1 66574U 25268T   25337.25003472 -.00955806  00000+0 -68583-2 0  9990", "line2": "2 66574  42.9989 177.2942 0001453 268.5554 189.2865 15.75383492  3145"}}, "geometry": {"type": "Point", "coordinates": [-20.32508885743975, 14.092635271715032]}}, {"type": "Feature", "properties": {"norad_id": 66575, "name": "STARLINK-35810", "group": "last-30-days", "lat": 12.83098429344032, "lon": -18.84828365578197, "alt_km": 343.9575591020275, "timestamp": "2025-12-03T13:52:08.346728+00:00", "meta": {"OBJECT_NAME": "STARLINK-35810", "OBJECT_ID": "2025-268U", "EPOCH": "2025-12-03T06:00:02.999808", "MEAN_MOTION": 15.75370581, "ECCENTRICITY": 0.00017998, "INCLINATION": 42.999, "RA_OF_ASC_NODE": 177.2895, "ARG_OF_PERICENTER": 272.5189, "MEAN_ANOMALY": 187.2506, "EPHEMERIS_TYPE": 0, "CLASSIFICATION_TYPE": "U", "NORAD_CAT_ID": 66575, "ELEMENT_SET_NO": 999, "REV_AT_EPOCH": 314, "BSTAR": -0.0067777556, "MEAN_MOTION_DOT": -0.00945404, "MEAN_MOTION_DDOT": 0}, "tle": {"line1": "1 66575U 25268U   25337.25003472 -.00945404  00000+0 -67778-2 0  9999", "line2": "2 66575  42.9990 177.2895 0001799 272.5189 187.2506 15.75370581  3142"}}, "geometry": {"type": "Point", "coordinates": [-18.84828365578197, 12.83098429344032]}}, {"type": "Feature", "properties": {"norad_id": 66576, "name": "STARLINK-35814", "group": "last-30-days", "lat": 11.558171480557458, "lon": -17.383307950057453, "alt_km": 344.02421093175235, "timestamp": "2025-12-03T13:52:08.346740+00:00", "meta": {"OBJECT_NAME": "STARLINK-35814", "OBJECT_ID": "2025-268V", "EPOCH": "2025-12-03T06:00:02.999808", "MEAN_MOTION": 15.75365356, "ECCENTRICITY": 0.00016433, "INCLINATION": 42.999, "RA_OF_ASC_NODE": 177.2845, "ARG_OF_PERICENTER": 270.386, "MEAN_ANOMALY": 191.3036, "EPHEMERIS_TYPE": 0, "CLASSIFICATION_TYPE": "U", "NORAD_CAT_ID": 66576, "ELEMENT_SET_NO": 999, "REV_AT_EPOCH": 314, "BSTAR": -0.0067228362, "MEAN_MOTION_DOT": -0.00938284, "MEAN_MOTION_DDOT": 0}, "tle": {"line1": "1 66576U 25268V   25337.25003472 -.00938284  00000+0 -67228-2 0  9998", "line2": "2 66576  42.9990 177.2845 0001643 270.3860 191.3036 15.75365356  3146"}}, "geometry": {"type": "Point", "coordinates": [-17.383307950057453, 11.558171480557458]}}, {"type": "Feature", "properties": {"norad_id": 66577, "name": "STARLINK-35815", "group": "last-30-days", "lat": 10.270200621174848, "lon": -15.922616968466835, "alt_km": 343.9532764012165, "timestamp": "2025-12-03T13:52:08.346751+00:00", "meta": {"OBJECT_NAME": "STARLINK-35815", "OBJECT_ID": "2025-268W", "EPOCH": "2025-12-03T06:00:02.999808", "MEAN_MOTION": 15.7540291, "ECCENTRICITY": 0.00011829, "INCLINATION": 42.9989, "RA_OF_ASC_NODE": 177.2798, "ARG_OF_PERICENTER": 261.1775, "MEAN_ANOMALY": 202.4215, "EPHEMERIS_TYPE": 0, "CLASSIFICATION_TYPE": "U", "NORAD_CAT_ID": 66577, "ELEMENT_SET_NO": 999, "REV_AT_EPOCH": 314, "BSTAR": -0.0071833071, "MEAN_MOTION_DOT": -0.01013508, "MEAN_MOTION_DDOT": 0}, "tle": {"line1": "1 66577U 25268W   25337.25003472 -.01013508  00000+0 -71833-2 0  9990", "line2": "2 66577  42.9989 177.2798 0001182 261.1775 202.4215 15.75402910  3144"}}, "geometry": {"type": "Point", "coordinates": [-15.922616968466835, 10.270200621174848]}}, {"type": "Feature", "properties": {"norad_id": 66578, "name": "STARLINK-35743", "group": "last-30-days", "lat": 8.988080521267056, "lon": -14.48766778258782, "alt_km": 344.1377244379182, "timestamp": "2025-12-03T13:52:08.346761+00:00", "meta": {"OBJECT_NAME": "STARLINK-35743", "OBJECT_ID": "2025-268X", "EPOCH": "2025-12-03T06:00:02.999808", "MEAN_MOTION": 15.75393884, "ECCENTRICITY": 0.00012067, "INCLINATION": 42.9989, "RA_OF_ASC_NODE": 177.275, "ARG_OF_PERICENTER": 263.7518, "MEAN_ANOMALY": 201.7599, "EPHEMERIS_TYPE": 0, "CLASSIFICATION_TYPE": "U", "NORAD_CAT_ID": 66578, "ELEMENT_SET_NO": 999, "REV_AT_EPOCH": 314, "BSTAR": -0.0070166005, "MEAN_MOTION_DOT": -0.00991819, "MEAN_MOTION_DDOT": 0}, "tle": {"line1": "1 66578U 25268X   25337.25003472 -.00991819  00000+0 -70166-2 0  9998", "line2": "2 66578  42.9989 177.2750 0001206 263.7518 201.7599 15.75393884  3149"}}, "geometry": {"type": "Point", "coordinates": [-14.48766778258782, 8.988080521267056]}}, {"type": "Feature", "properties": {"norad_id": 66579, "name": "STARLINK-35868", "group": "last-30-days", "lat": 7.7018553066581665, "lon": -13.064651581627462, "alt_km": 344.5312947531729, "timestamp": "2025-12-03T13:52:08.346770+00:00", "meta": {"OBJECT_NAME": "STARLINK-35868", "OBJECT_ID": "2025-268Y", "EPOCH": "2025-12-03T06:00:02.999808", "MEAN_MOTION": 15.75399747, "ECCENTRICITY": 0.00020638, "INCLINATION": 42.999, "RA_OF_ASC_NODE": 177.27, "ARG_OF_PERICENTER": 268.9648, "MEAN_ANOMALY": 198.4669, "EPHEMERIS_TYPE": 0, "CLASSIFICATION_TYPE": "U", "NORAD_CAT_ID": 66579, "ELEMENT_SET_NO": 999, "REV_AT_EPOCH": 314, "BSTAR": -0.0071410714, "MEAN_MOTION_DOT": -0.01008318, "MEAN_MOTION_DDOT": 0}, "tle": {"line1": "1 66579U 25268Y   25337.25003472 -.01008318  00000+0 -71411-2 0  9997", "line2": "2 66579  42.9990 177.2700 0002063 268.9648 198.4669 15.75399747  3144"}}, "geometry": {"type": "Point", "coordinates": [-13.064651581627462, 7.7018553066581665]}}, {"type": "Feature", "properties": {"norad_id": 66580, "name": "STARLINK-35872", "group": "last-30-days", "lat": 6.406291833052558, "lon": -11.644630603143423, "alt_km": 344.6626162051307, "timestamp": "2025-12-03T13:52:08.346780+00:00", "meta": {"OBJECT_NAME": "STARLINK-35872", "OBJECT_ID": "2025-268Z", "EPOCH": "2025-12-03T06:00:02.999808", "MEAN_MOTION": 15.75400303, "ECCENTRICITY": 0.00019913, "INCLINATION": 42.9991, "RA_OF_ASC_NODE": 177.2656, "ARG_OF_PERICENTER": 269.248, "MEAN_ANOMALY": 200.0987, "EPHEMERIS_TYPE": 0, "CLASSIFICATION_TYPE": "U", "NORAD_CAT_ID": 66580, "ELEMENT_SET_NO": 999, "REV_AT_EPOCH": 314, "BSTAR": -0.0071335607, "MEAN_MOTION_DOT": -0.0100735, "MEAN_MOTION_DDOT": 0}, "tle": {"line1": "1 66580U 25268Z   25337.25003472 -.01007350  00000+0 -71336-2 0  9990", "line2": "2 66580  42.9991 177.2656 0001991 269.2480 200.0987 15.75400303  3148"}}, "geometry": {"type": "Point", "coordinates": [-11.644630603143423, 6.406291833052558]}}, {"type": "Feature", "properties": {"norad_id": 66581, "name": "STARLINK-35744", "group": "last-30-days", "lat": 5.105957582818308, "lon": -10.232033315162301, "alt_km": 344.80688792127694, "timestamp": "2025-12-03T13:52:08.346793+00:00", "meta": {"OBJECT_NAME": "STARLINK-35744", "OBJECT_ID": "2025-268AA", "EPOCH": "2025-12-03T06:00:02.999808", "MEAN_MOTION": 15.75389431, "ECCENTRICITY": 0.00019154, "INCLINATION": 42.999, "RA_OF_ASC_NODE": 177.2601, "ARG_OF_PERICENTER": 269.932, "MEAN_ANOMALY": 201.3381, "EPHEMERIS_TYPE": 0, "CLASSIFICATION_TYPE": "U", "NORAD_CAT_ID": 66581, "ELEMENT_SET_NO": 999, "REV_AT_EPOCH": 309, "BSTAR": -0.0070231516, "MEAN_MOTION_DOT": -0.00992741, "MEAN_MOTION_DDOT": 0}, "tle": {"line1": "1 66581U 25268AA  25337.25003472 -.00992741  00000+0 -70232-2 0  9991", "line2": "2 66581  42.9990 177.2601 0001915 269.9320 201.3381 15.75389431  3098"}}, "geometry": {"type": "Point", "coordinates": [-10.232033315162301, 5.105957582818308]}}, {"type": "Feature", "properties": {"norad_id": 66582, "name": "STARLINK-35746", "group": "last-30-days", "lat": 3.7993825045851217, "lon": -8.821007167608736, "alt_km": 345.15287933789114, "timestamp": "2025-12-03T13:52:08.346803+00:00", "meta": {"OBJECT_NAME": "STARLINK-35746", "OBJECT_ID": "2025-268AB", "EPOCH": "2025-12-03T06:00:02.999808", "MEAN_MOTION": 15.7542013, "ECCENTRICITY": 0.00014796, "INCLINATION": 42.9991, "RA_OF_ASC_NODE": 177.2554, "ARG_OF_PERICENTER": 283.3025, "MEAN_ANOMALY": 189.8639, "EPHEMERIS_TYPE": 0, "CLASSIFICATION_TYPE": "U", "NORAD_CAT_ID": 66582, "ELEMENT_SET_NO": 999, "REV_AT_EPOCH": 314, "BSTAR": -0.007281179, "MEAN_MOTION_DOT": -0.01026808, "MEAN_MOTION_DDOT": 0}, "tle": {"line1": "1 66582U 25268AB  25337.25003472 -.01026808  00000+0 -72812-2 0  9991", "line2": "2 66582  42.9991 177.2554 0001479 283.3025 189.8639 15.75420130  3148"}}, "geometry": {"type": "Point", "coordinates": [-8.821007167608736, 3.7993825045851217]}}]}